{
  "62591": {
    "noradId": "62591",
    "tle": [
      "1 62591C 25008E   26003.81923611  .00034343  00000+0  26680-3 0    37",
      "2 62591  43.0001 157.3210 0001750 286.2978 312.6184 15.70798901    10"
    ]
  },
  "62592": {
    "noradId": "62592",
    "tle": [
      "1 62592C 25008F   26003.82201389  .00051191  00000+0  39776-3 0    30",
      "2 62592  43.0001 157.5282 0001710 288.4241 236.0542 15.70777825    14"
    ]
  },
  "62593": {
    "noradId": "62593",
    "tle": [
      "1 62593C 25008G   26003.82201389  .00034567  00000+0  26856-3 0    34",
      "2 62593  43.0002 157.4527 0001728 284.4992 270.0245 15.70796741    11"
    ]
  },
  "62594": {
    "noradId": "62594",
    "tle": [
      "1 62594C 25008H   26003.82340278 -.00001736  00000+0 -13494-4 0    35",
      "2 62594  43.0004 156.8109 0001537 272.6667 170.2860 15.70814623    13"
    ]
  },
  "62595": {
    "noradId": "62595",
    "tle": [
      "1 62595C 25008J   26003.82340278  .00045389  00000+0  35267-3 0    37",
      "2 62595  43.0003 156.7710 0001740 289.5591 183.3906 15.70784385    16"
    ]
  },
  "62597": {
    "noradId": "62597",
    "tle": [
      "1 62597C 25008L   26003.82340278  .00064667  00000+0  50279-3 0    39",
      "2 62597  43.0003 156.9940 0001798 257.8582 124.9647 15.70749129    16"
    ]
  },
  "62598": {
    "noradId": "62598",
    "tle": [
      "1 62598C 25008M   26003.82479167  .00041776  00000+0  32457-3 0    34",
      "2 62598  43.0002 157.0601 0001763 271.2772  89.2886 15.70789522    14"
    ]
  },
  "62599": {
    "noradId": "62599",
    "tle": [
      "1 62599C 25008N   26003.82409722  .00028700  00000+0  22299-3 0    30",
      "2 62599  43.0000 157.1387 0001707 281.4189  45.1490 15.70801520    13"
    ]
  },
  "62600": {
    "noradId": "62600",
    "tle": [
      "1 62600C 25008P   26003.79076389 -.00075349  00000+0 -27310-2 0    39",
      "2 62600  43.0005 284.7745 0001315 256.9952 157.5436 15.27631299    10"
    ]
  },
  "62601": {
    "noradId": "62601",
    "tle": [
      "1 62601C 25008Q   26003.78590278 -.00043714  00000+0 -15834-2 0    36",
      "2 62601  43.0008 284.3172 0001321 263.8902 321.9707 15.27620633    11"
    ]
  },
  "62602": {
    "noradId": "62602",
    "tle": [
      "1 62602C 25008R   26003.79006944 -.00081151  00000+0 -29377-2 0    34",
      "2 62602  43.0012 284.3421 0001187 267.8404 319.6738 15.27677481    16"
    ]
  },
  "62603": {
    "noradId": "62603",
    "tle": [
      "1 62603C 25008S   26003.78729167 -.00082154  00000+0 -29756-2 0    38",
      "2 62603  43.0000 284.9422 0001076 273.8894  57.8568 15.27660925    15"
    ]
  },
  "62604": {
    "noradId": "62604",
    "tle": [
      "1 62604C 25008T   26003.79215278 -.00044793  00000+0 -16227-2 0    39",
      "2 62604  43.0005 284.0910 0001422 272.2051  65.9018 15.27617778    15"
    ]
  },
  "62605": {
    "noradId": "62605",
    "tle": [
      "1 62605C 25008U   26003.79076389 -.00065342  00000+0 -23670-2 0    31",
      "2 62605  43.0003 284.1488 0001348 258.0725  51.1776 15.27639406    12"
    ]
  },
  "62606": {
    "noradId": "62606",
    "tle": [
      "1 62606C 25008V   26003.78868056 -.00074756  00000+0 -27074-2 0    32",
      "2 62606  43.0016 284.4039 0001374 272.0096 286.7065 15.27656577    13"
    ]
  },
  "62607": {
    "noradId": "62607",
    "tle": [
      "1 62607C 25008W   26003.78590278  .00020118  00000+0  71531-3 0    30",
      "2 62607  43.0004 284.2440 0001404 225.7323  29.6675 15.28163617    17"
    ]
  },
  "62735": {
    "noradId": "62735",
    "tle": [
      "1 62735C 25014A   26003.78312500 -.00000406  00000+0 -14721-4 0    38",
      "2 62735  43.0018 161.1368 0001404 267.7904 274.0438 15.27560600    12"
    ]
  },
  "62736": {
    "noradId": "62736",
    "tle": [
      "1 62736C 25014B   26003.78590278  .00017342  00000+0  62823-3 0    39",
      "2 62736  42.9988 160.8570 0001453 272.6775  30.5456 15.27556194    11"
    ]
  },
  "62737": {
    "noradId": "62737",
    "tle": [
      "1 62737C 25014C   26003.78590278 -.00001901  00000+0 -68860-4 0    34",
      "2 62737  42.9996 164.1598 0001486 261.4648 108.1206 15.27568723    15"
    ]
  },
  "62738": {
    "noradId": "62738",
    "tle": [
      "1 62738C 25014D   26003.78520833 -.00010178  00000+0 -36895-3 0    33",
      "2 62738  42.9996 160.5865 0001477 271.9289 140.7321 15.27561356    15"
    ]
  },
  "62739": {
    "noradId": "62739",
    "tle": [
      "1 62739C 25014E   26003.78937500  .00010857  00000+0  39334-3 0    30",
      "2 62739  42.9996 160.5304 0001551 270.2450 179.4486 15.27560177    10"
    ]
  },
  "62740": {
    "noradId": "62740",
    "tle": [
      "1 62740C 25014F   26003.78451389  .00012196  00000+0  44187-3 0    38",
      "2 62740  43.0005 161.3260 0001684 274.7713 189.7868 15.27555984    11"
    ]
  },
  "62741": {
    "noradId": "62741",
    "tle": [
      "1 62741C 25014G   26003.78868056  .00010555  00000+0  38244-3 0    36",
      "2 62741  42.9997 160.7084 0001488 264.5547 110.5915 15.27557556    13"
    ]
  },
  "62742": {
    "noradId": "62742",
    "tle": [
      "1 62742C 25014H   26003.78590278  .00016762  00000+0  60722-3 0    37",
      "2 62742  42.9990 160.8753 0001460 271.2396  24.9161 15.27556298    11"
    ]
  },
  "62743": {
    "noradId": "62743",
    "tle": [
      "1 62743C 25014J   26003.78937500 -.00012500  00000+0 -45317-3 0    32",
      "2 62743  43.0016 168.2567 0001434 268.5044 207.0347 15.27561291    17"
    ]
  },
  "62744": {
    "noradId": "62744",
    "tle": [
      "1 62744C 25014K   26003.78937500  .00006259  00000+0  22679-3 0    31",
      "2 62744  42.9996 164.3104 0001429 266.7729  51.1904 15.27559862    19"
    ]
  },
  "62745": {
    "noradId": "62745",
    "tle": [
      "1 62745C 25014L   26003.78520833  .00002035  00000+0  73752-4 0    36",
      "2 62745  42.9997 160.5012 0001370 267.7808 180.2240 15.27559572    16"
    ]
  },
  "62746": {
    "noradId": "62746",
    "tle": [
      "1 62746C 25014M   26003.78868056  .00015593  00000+0  56490-3 0    31",
      "2 62746  43.0008 161.2810 0001684 274.3675 220.2039 15.27555500    18"
    ]
  },
  "62747": {
    "noradId": "62747",
    "tle": [
      "1 62747C 25014N   26003.79076389  .00012821  00000+0  46425-3 0    31",
      "2 62747  43.0012 160.9836 0001358 280.0794 346.1676 15.27573389    12"
    ]
  },
  "62748": {
    "noradId": "62748",
    "tle": [
      "1 62748C 25014P   26003.79006944  .00004564  00000+0  16540-3 0    32",
      "2 62748  42.9997 164.1686 0001513 265.6705 112.7165 15.27555446    10"
    ]
  },
  "62749": {
    "noradId": "62749",
    "tle": [
      "1 62749C 25014Q   26003.78312500 -.00000998  00000+0 -36147-4 0    35",
      "2 62749  42.9996 164.2425 0001454 264.4981  61.4927 15.27570188    15"
    ]
  },
  "62750": {
    "noradId": "62750",
    "tle": [
      "1 62750C 25014R   26003.78868056  .00011621  00000+0  42104-3 0    31",
      "2 62750  42.9997 160.6685 0001487 264.4880 124.8024 15.27555781    14"
    ]
  },
  "62751": {
    "noradId": "62751",
    "tle": [
      "1 62751C 25014S   26003.79215278  .00000589  00000+0  21328-4 0    32",
      "2 62751  43.0014 164.6217 0001447 264.8724 293.9713 15.27561690    18"
    ]
  },
  "62752": {
    "noradId": "62752",
    "tle": [
      "1 62752C 25014T   26003.79076389  .00000315  00000+0  11398-4 0    34",
      "2 62752  43.0002 161.3006 0001428 266.9053 225.0309 15.27559179    19"
    ]
  },
  "62753": {
    "noradId": "62753",
    "tle": [
      "1 62753C 25014U   26003.78729167  .00014770  00000+0  53513-3 0    37",
      "2 62753  43.0016 161.2386 0001717 276.2996 231.8517 15.27554434    11"
    ]
  },
  "62754": {
    "noradId": "62754",
    "tle": [
      "1 62754C 25014V   26003.78451389  .00005522  00000+0  20010-3 0    37",
      "2 62754  42.9997 160.5441 0001630 265.9171 164.1160 15.27555911    19"
    ]
  },
  "62755": {
    "noradId": "62755",
    "tle": [
      "1 62755C 25014W   26003.79145833 -.00002441  00000+0 -88460-4 0    36",
      "2 62755  43.0019 161.0636 0001533 265.2557 329.5638 15.27556055    19"
    ]
  },
  "62758": {
    "noradId": "62758",
    "tle": [
      "1 62758C 25015A   26003.78798611  .00026680  00000+0  89923-3 0    30",
      "2 62758  53.1574 264.1976 0001293  78.5301 167.4899 15.30163828    11"
    ]
  },
  "62759": {
    "noradId": "62759",
    "tle": [
      "1 62759C 25015B   26003.78798611  .00034162  00000+0  11514-2 0    35",
      "2 62759  53.1576 264.1777 0001337  78.2891 179.3649 15.30157361    13"
    ]
  },
  "62760": {
    "noradId": "62760",
    "tle": [
      "1 62760C 25015C   26003.78659722  .00025366  00000+0  85490-3 0    37",
      "2 62760  53.1580 263.9692 0001568  77.8676 265.2142 15.30166885    19"
    ]
  },
  "62761": {
    "noradId": "62761",
    "tle": [
      "1 62761C 25015D   26003.79006944  .00029904  00000+0  10078-2 0    32",
      "2 62761  53.1590 263.8351 0001463 100.0248 337.7804 15.30163597    17"
    ]
  },
  "62762": {
    "noradId": "62762",
    "tle": [
      "1 62762C 25015E   26003.78798611  .00032900  00000+0  11089-2 0    34",
      "2 62762  53.1581 263.6244 0001244  82.8293  94.0153 15.30157028    13"
    ]
  },
  "62763": {
    "noradId": "62763",
    "tle": [
      "1 62763C 25015F   26003.78659722 -.00004652  00000+0 -15688-3 0    39",
      "2 62763  53.1574 264.2373 0001515  81.2455 139.7311 15.30178979    11"
    ]
  },
  "62764": {
    "noradId": "62764",
    "tle": [
      "1 62764C 25015G   26003.78520833  .00033201  00000+0  11193-2 0    36",
      "2 62764  53.1576 263.5829 0000971  96.3992  94.2288 15.30150490    16"
    ]
  },
  "62765": {
    "noradId": "62765",
    "tle": [
      "1 62765C 25015H   26003.78520833  .00029919  00000+0  10084-2 0    36",
      "2 62765  53.1580 264.0361 0001372  82.6602 235.2980 15.30162214    14"
    ]
  }
}